TIANYI A                
1 64048U 25103A   25167.21135864  .00004418  00000+0  24051-3 0  9995
2 64048  97.4131 242.1091 0005429  51.3636 308.8081 15.14929772  4540
TIANYI B                
1 64049U 25103B   25167.20326671  .00005152  00000+0  27710-3 0  9994
2 64049  97.4186 242.1422 0003287  47.6330 312.5180 15.15290629  4543
TIANYI C                
1 64050U 25103C   25167.20299800  .00005118  00000+0  27514-3 0  9993
2 64050  97.4145 242.1263 0003359  44.3028 315.8473 15.15311841  4542
TIANYI D                
1 64051U 25103D   25167.20352423  .00003380  00000+0  18343-3 0  9994
2 64051  97.4213 242.1521 0003662  40.7613 319.3893 15.15210105  4538
TIANYI E                
1 64052U 25103E   25167.20193476  .00005514  00000+0  29547-3 0  9995
2 64052  97.4150 242.1299 0003665  36.1465 324.0014 15.15388038  4537
TIANYI F                
1 64053U 25103F   25167.20053369  .00003006  00000+0  16252-3 0  9995
2 64053  97.4192 242.1475 0003646  30.5692 329.5752 15.15430219  4559
QPS-SAR-10 (WADATSUMI-I)
1 64055U 25104A   25167.18811299  .00003594  00000+0  31968-3 0  9992
2 64055  42.0045 130.6782 0006902 110.4666 249.6900 14.97334351  4469
ELECTRON R/B            
1 64056U 25104B   25167.19753127  .01065754  77449-5  14962-2 0  9997
2 64056  41.9341 112.8308 0148165 100.6106 261.1476 15.87179350  4677
ELECTRON KICK STAGE R/B 
1 64057U 25104C   25166.90419085  .00115160  10451-4  10164-2 0  9993
2 64057  42.0038 119.6942 0184742 116.6254 245.3644 15.49303761  4229
TIANQI A                
1 64058U 25105A   25163.62775521 -.00000027  00000+0  58558-4 0  9992
2 64058  44.9783 226.6199 0011805  82.2486  21.2906 14.11082044  3435
TIANQI B                
1 64059U 25105B   25163.63334775  .00000026  00000+0  85305-4 0  9994
2 64059  45.0091 226.5259 0012958  96.0973  65.6251 14.12604913  3431
TIANQI C                
1 64060U 25105C   25163.56395292  .00000014  00000+0  80397-4 0  9992
2 64060  44.9847 226.8829 0011602  89.9431  63.5199 14.11468996  3426
TIANQI D                
1 64061U 25105D   25163.63465439  .00000001  00000+0  72892-4 0  9999
2 64061  44.9848 226.5519 0010986  85.1010  73.5087 14.11747343  3441
CHINASAT 3B             
1 64062U 25106A   25167.17892039 -.00000034  00000+0  00000+0 0  9998
2 64062   0.0288  84.0267 0001419 167.0440 245.3373  1.00269964   400
CZ-7A R/B               
1 64063U 25106B   25166.90758023  .00219080 -17255-6  21844-2 0  9995
2 64063  15.5912  64.8306 7112315 201.1070 100.4919  2.55363872   669
STARLINK-11741 [DTC]    
1 64064U 25107A   25166.65969342  .00320183  00000+0  17665-2 0  9992
2 64064  42.9972 269.3860 0001757 284.5983  75.4692 15.77956862  5282
STARLINK-11709 [DTC]    
1 64065U 25107B   25166.59151334  .00215565  00000+0  12080-2 0  9993
2 64065  42.9982 269.7334 0001259 270.8012  89.2714 15.77902486  5216
STARLINK-11737 [DTC]    
1 64066U 25107C   25167.15632766  .00247355  00000+0  13672-2 0  9990
2 64066  42.9988 266.2245 0003454 267.1169  92.9306 15.78115530  5278
STARLINK-11726 [DTC]    
1 64067U 25107D   25167.15145627  .00326506  00000+0  17870-2 0  9996
2 64067  42.9971 266.1845 0005911 315.6704  44.3693 15.78104971  5301
STARLINK-11700 [DTC]    
1 64068U 25107E   25166.57687430  .00238637  00000+0  13333-2 0  9992
2 64068  42.9987 269.6151 0001479 264.7819  95.2882 15.77903249  5245
STARLINK-11649 [DTC]    
1 64069U 25107F   25166.76189750  .00235467  00000+0  13180-2 0  9994
2 64069  42.9972 268.4186 0001077 293.5093  66.5664 15.77871292  5301
STARLINK-11713 [DTC]    
1 64070U 25107G   25166.44052396  .00282124  00000+0  15669-2 0  9992
2 64070  42.9978 270.3066 0004058 292.0388  68.0051 15.77909097  5257
STARLINK-11719 [DTC]    
1 64071U 25107H   25166.68883224  .00162419  00000+0  91688-3 0  9991
2 64071  42.9981 268.7276 0002255 263.6348  96.4266 15.77894653  5291
STARLINK-11733 [DTC]    
1 64072U 25107J   25166.68395088  .00202815  00000+0  11363-2 0  9994
2 64072  43.0003 268.6881 0003721 273.2642  86.7803 15.77939271  5298
STARLINK-11729 [DTC]    
1 64073U 25107K   25166.67907679  .00234694  00000+0  13099-2 0  9997
2 64073  42.9995 268.6486 0002354 281.1617  78.8988 15.77937038  5294
STARLINK-11730 [DTC]    
1 64074U 25107L   25166.67419829  .00242373  00000+0  13521-2 0  9996
2 64074  42.9996 268.6084 0001577 276.2806  83.7885 15.77926936  5297
STARLINK-11723 [DTC]    
1 64075U 25107M   25166.66931717  .00219545  00000+0  12279-2 0  9995
2 64075  43.0007 268.5699 0002442 281.0949  78.9647 15.77933639  5298
STARLINK-11715 [DTC]    
1 64076U 25107N   25164.76670384  .00499014  00000+0  22057-2 0  9991
2 64076  43.0039 280.1063 0007591 294.2090  65.7989 15.82311442  4999
STARLINK-34201          
1 64077U 25107P   25166.67026189  .00048385  00000+0  11576-2 0  9997
2 64077  42.9992 271.2458 0001589 271.2132  88.8543 15.40715985  4174
STARLINK-34190          
1 64078U 25107Q   25166.01356526  .00062704  00000+0  10644-2 0  9993
2 64078  42.9975 274.9166 0000845 274.3895  85.6868 15.50624401  5164
STARLINK-34168          
1 64079U 25107R   25166.59399193  .00056630  00000+0  96341-3 0  9994
2 64079  42.9994 271.5313 0001450 266.1383  93.9312 15.50600459  5238
STARLINK-34098          
1 64080U 25107S   25166.33598976  .00055513  00000+0  94564-3 0  9992
2 64080  43.0009 273.0345 0001898 267.1977  92.8666 15.50570572  5217
STARLINK-34180          
1 64081U 25107T   25165.36967635 -.00222902  00000+0 -42040-2 0  9998
2 64081  43.0000 278.6845 0009014 296.2018  63.7914 15.48420349  5061
STARLINK-34171          
1 64082U 25107U   25166.72144825  .00041354  00000+0  70690-3 0  9999
2 64082  42.9981 270.7665 0001520 264.9917  95.0770 15.50583177  5278
STARLINK-34126          
1 64083U 25107V   25165.69409839  .00045259  00000+0  94096-3 0  9998
2 64083  42.9995 276.8167 0019510 251.3293 108.5447 15.44719692  4022
STARLINK-34157          
1 64084U 25107W   25166.65565818  .00055509  00000+0  94435-3 0  9992
2 64084  42.9982 271.1320 0002017 267.4288  92.6342 15.50606704  5242
STARLINK-34140          
1 64085U 25107X   25166.59227858  .00045346  00000+0  77428-3 0  9996
2 64085  42.9985 271.5160 0001388 257.5254 102.5451 15.50579685  5233
STARLINK-34132          
1 64086U 25107Y   25165.75453492  .00056806  00000+0  96612-3 0  9998
2 64086  43.0002 276.4105 0002359 277.2504  82.8088 15.50605988  4821
2025-108A               
1 64087U 25108A   25167.19792091  .00004264  00000+0  24078-3 0  9999
2 64087  97.5125 242.6552 0016084 195.7724 164.3008 15.13558347  3946
2025-108B               
1 64088U 25108B   25167.20459558  .00005987  00000+0  33960-3 0  9993
2 64088  97.5090 242.6346 0015337 189.6154 170.4786 15.13236762  3909
2025-108C               
1 64089U 25108C   25167.20725503  .00004568  00000+0  26152-3 0  9999
2 64089  97.5058 242.6172 0016521 189.9079 170.1829 15.13020331  3904
2025-108D               
1 64090U 25108D   25167.20221868  .00003766  00000+0  21398-3 0  9992
2 64090  97.5057 242.6276 0015227 194.1603 165.9204 15.13414513  3901
2025-108E               
1 64091U 25108E   25167.20351530  .00007166  00000+0  40445-3 0  9995
2 64091  97.5051 242.6238 0015351 189.8125 170.2809 15.13347004  3902
2025-108F               
1 64092U 25108F   25167.20081357  .00007729  00000+0  43356-3 0  9992
2 64092  97.5046 242.6256 0015417 192.3624 167.7231 15.13539549  3900
ZK-1 R/B                
1 64093U 25108G   25167.21474441  .00009084  00000+0  21993-3 0  9993
2 64093  97.4635 243.3875 0103758 285.5503  73.4305 15.35848149  3960
COSMOS 2588             
1 64095U 25109A   25166.93770778  .00008672  00000+0  29138-3 0  9997
2 64095  72.9734 318.2006 0011273 206.5435 153.5186 15.30944072  3611
STARLINK-34178          
1 64096U 25110A   25167.06052608  .00069467  00000+0  12441-2 0  9997
2 64096  53.1599 194.9367 0000637  57.8278 302.2793 15.49352129  4822
STARLINK-34174          
1 64097U 25110B   25167.21567320 -.00301845  00000+0 -75721-2 0  9998
2 64097  53.1601 194.4849 0000941  41.5522 318.5555 15.40665081  4840
STARLINK-34146          
1 64098U 25110C   25167.08173413  .00060648  00000+0  12598-2 0  9994
2 64098  53.1597 195.0709 0009868 259.8569 100.1325 15.45075842  4822
STARLINK-34074          
1 64099U 25110D   25167.07960377 -.00294526  00000+0 -61597-2 0  9996
2 64099  53.1594 195.0563 0001294 102.1798 257.9355 15.46007387  4821
STARLINK-34082          
1 64100U 25110E   25166.89567055  .00032662  00000+0  82266-3 0  9990
2 64100  53.1596 196.0433 0001020  97.4860 262.6261 15.39633547  4897
STARLINK-34072          
1 64101U 25110F   25167.08549304 -.00294868  00000+0 -74090-2 0  9995
2 64101  53.1599 195.0949 0001415  55.6157 304.4982 15.40586781  4822
STARLINK-34104          
1 64102U 25110G   25167.21147704 -.00195389  00000+0 -45693-2 0  9994
2 64102  53.1604 194.4573 0001339  18.1961 341.9093 15.42330856  4841
STARLINK-34179          
1 64103U 25110H   25167.14364873 -.00013255  00000+0 -27228-3 0  9991
2 64103  53.1595 194.7450 0001971  33.5939 326.5193 15.44570286  4830
STARLINK-34176          
1 64104U 25110J   25167.14136639 -.00484805  00000+0 -99117-2 0  9997
2 64104  53.1595 194.7300 0001932  21.4197 338.6891 15.47371972  4837
STARLINK-33949          
1 64105U 25110K   25166.68929441 -.00112459  00000+0 -20794-2 0  9995
2 64105  53.1594 196.8859 0002925  89.1198 271.0146 15.48803104  4868
STARLINK-33970          
1 64106U 25110L   25167.07589727  .00046392  00000+0  83636-3 0  9994
2 64106  53.1592 195.0316 0000785  73.8971 286.2124 15.49338902  4827
STARLINK-33912          
1 64107U 25110M   25166.81752418  .00044954  00000+0  81099-3 0  9998
2 64107  53.1592 196.2635 0001189  86.6545 273.4600 15.49332958  4881
STARLINK-34156          
1 64108U 25110N   25167.07521125  .00049648  00000+0  89393-3 0  9997
2 64108  53.1592 195.0270 0001869  97.7078 262.4144 15.49344293  4823
